DIAMOND GREEN           
1 42785U 17036W   24077.85021632  .00398623  62056-4  12563-2 0  9993
2 42785  97.0984 117.5497 0005137 177.7923 182.3375 15.91304710375523
DIAMOND BLUE            
1 42786U 17036X   24078.54311620  .00252685  00000+0  11683-2 0  9995
2 42786  97.1045 117.4632 0005394 160.0226 200.1256 15.82822900375656
CICERO 6                
1 42793U 17036AE  24078.84351881  .00088128  00000+0  91539-3 0  9997
2 42793  97.1076 115.2477 0005938 152.1946 207.9632 15.64326426375561
CORVUS BC2              
1 42846U 17042X   24078.49914250  .00002494  00000+0  22281-3 0  9999
2 42846  97.3760 268.7071 0008839  13.1823 346.9629 14.96735484363872
CORVUS BC1              
1 42847U 17042Y   24078.46932988  .00003257  00000+0  28847-3 0  9997
2 42847  97.3748 269.0672 0008287  14.3001 345.8455 14.96878398363886
MIRATA                  
1 43015U 17073C   24078.20772409  .00013122  00000+0  68388-3 0  9997
2 43015  97.6112 324.2702 0182030 210.0691 148.9986 15.02836041342648
MAKERSAT 0              
1 43016U 17073D   24078.57065308  .00008848  00000+0  53462-3 0  9997
2 43016  97.5963 320.2053 0203522 226.6227 131.7889 14.95177906342365
CORVUS BC3              
1 43118U 18004H   24078.22266612  .00063416  00000+0  67530-3 0  9991
2 43118  97.2942 160.7990 0005490 204.6928 155.4069 15.63782750344592
GOMX-4B                 
1 43196U 18015E   24078.41271370  .00031321  00000+0  50898-3 0  9996
2 43196  97.6034 245.8919 0009787 286.2645  73.7530 15.52601977341394
GOMX-4A                 
1 43197U 18015F   24078.78854174  .00054569  00000+0  69840-3 0  9992
2 43197  97.5968 250.2425 0008923 275.1123  84.9114 15.58996264341722
CICERO 10               
1 43690U 18088A   24078.85691695  .00063724  00000+0  84291-3 0  9995
2 43690  85.0162 243.5733 0007240 269.1675  90.8757 15.58062205298034
PROXIMA I               
1 43694U 18088E   24078.48755099  .00116638  00000+0  99701-3 0  9992
2 43694  85.0100 237.6222 0007115 241.9680 118.0868 15.69079001298436
PROXIMA II              
1 43696U 18088G   24078.87173147  .00120722  00000+0  10600-2 0  9994
2 43696  85.0087 237.4845 0006907 237.8121 122.2477 15.68411635298472
SIRION PATHFINDER-2     
1 43759U 18099B   24078.09911664  .00004097  00000+0  32117-3 0  9998
2 43759  97.5434 136.8258 0012365 243.4470 116.5487 15.01457705288832
CORVUS BC4              
1 43767U 18099K   24078.09325591  .00003787  00000+0  30217-3 0  9999
2 43767  97.5243 134.3028 0010605 322.3689  37.6793 15.00837515288722
MOVE-II                 
1 43780U 18099Y   24078.59387296  .00013750  00000+0  81192-3 0  9998
2 43780  97.5319 142.6676 0006180 288.5115  71.5443 15.11617496289223
SPACEBEE-7              
1 43816U 18099BL  24078.15797662  .00007641  00000+0  49354-3 0  9998
2 43816  97.5593 143.1322 0009799 235.0338 124.9971 15.08481103288671
SPACEBEE-6              
1 43818U 18099BN  24078.17243546  .00016256  00000+0  83102-3 0  9990
2 43818  97.5515 147.2031 0009242 241.8119 118.2181 15.16705342289082
SHIELDS 1               
1 43850U 18104B   24078.25735398  .00010036  00000+0  29577-3 0  9999
2 43850  85.0278 344.6919 0013972  59.4502 300.8124 15.34766698292203
ZACUBE-2                
1 43907U 18111AH  24078.62742441  .00191821  00000+0  10862-2 0  9996
2 43907  97.0819 321.0579 0003559 266.9018  93.1843 15.78537462291918
SONATE                  
1 44400U 19038Q   24078.87063351  .00018145  00000+0  62891-3 0  9994
2 44400  97.7115  69.2535 0019782  69.3468 290.9890 15.29699159260255
LUCKY-7                 
1 44406U 19038W   24078.48308583  .00026537  00000+0  74236-3 0  9996
2 44406  97.7038  71.8583 0017303  61.0722 299.2253 15.36492019260402
BEESAT 9                
1 44412U 19038AC  24078.51021138  .00096282  00000+0  12514-2 0  9999
2 44412  97.6864  78.1472 0011375  56.6137 303.6205 15.58397018260555
JAISAT-1                
1 44419U 19038F   24078.45218620  .00076472  00000+0  10215-2 0  9998
2 44419  97.6850  79.1474 0011039  58.9902 301.2435 15.57741940260928
DUCHIFAT-3              
1 44854U 19089C   24078.81626268  .00014376  00000+0  80212-3 0  9998
2 44854  36.9575 236.2528 0008247  61.9504 298.2075 15.12914414234493
M2 PATHFINDER           
1 45727U 20037E   24078.46504267  .00002205  00000+0  20017-3 0  9993
2 45727  97.7721 255.4558 0012495  68.6225 291.6328 14.96273607202374
NETSAT-4                
1 46504U 20068U   24078.39474217  .00007903  00000+0  45428-3 0  9997
2 46504  97.7971  33.3017 0008759 324.2220  35.8422 15.12743583190432
NETSAT-3                
1 46505U 20068V   24078.41528820  .00007792  00000+0  45348-3 0  9998
2 46505  97.7939  32.9354 0008408 334.1404  25.9404 15.12304285190433
NETSAT-1                
1 46506U 20068W   24078.44617882  .00005350  00000+0  32296-3 0  9995
2 46506  97.7960  32.6174 0007405 346.6370  13.4662 15.11138151190413
NETSAT-2                
1 46507U 20068X   24078.86967790  .00010316  00000+0  59302-3 0  9993
2 46507  97.7953  33.4498 0006902 354.7503   5.3653 15.12665519190451
WILDTRACKCUBE-SIMBA     
1 47941U 21022K   24078.84858383  .00011685  00000+0  56913-3 0  9997
2 47941  97.4711 336.5783 0018478  99.2681 261.0644 15.18362380164746
BEESAT-6                
1 47957U 21022AB  24077.70787045  .00059441  00000+0  13829-2 0  9994
2 47957  97.4584 342.4781 0013734  79.5358 280.7435 15.42007694164856
SMOG-1                  
1 47964U 21022AJ  24078.26436481  .00049631  00000+0  11341-2 0  9996
2 47964  97.4731 346.0209 0012264  67.1154 293.1387 15.42613940164128
BCCSAT-1                
1 48041U 21022AK  24078.26795600  .00035297  00000+0  10182-2 0  9999
2 48041  97.4724 343.3018 0011486  69.7870 290.4608 15.35554215163927
BEESAT-5                
1 48083U 21022AM  24077.49865130  .00075299  00000+0  15077-2 0  9999
2 48083  97.4407 343.0400 0012983  76.1257 284.1436 15.46394954164044
BEESAT-7                
1 48084U 21022AN  24078.54709200  .00060131  00000+0  14587-2 0  9996
2 48084  97.4676 343.6589 0012751  76.1751 284.0913 15.40755368163726
BEESAT-8                
1 48085U 21022AP  24078.21994521  .00018385  00000+0  70793-3 0  9999
2 48085  97.4808 339.7735 0016273  89.7437 270.5666 15.26291396163979
LEDSAT                  
1 49069U 21073D   24078.18822249  .00010294  00000+0  46340-3 0  9993
2 49069  97.4463 150.1461 0019929 240.9500 118.9740 15.21093359142602
SITRO-AIS 5 (KATYS)     
1 57176U 23091L   24078.82321068  .00006996  00000+0  47414-3 0  9994
2 57176  97.6260 131.8531 0019412  72.2167 288.1177 15.06620834 39889
SITRO-AIS 6 (CHIRKIN)   
1 57192U 23091AC  24078.81209302  .00006416  00000+0  43440-3 0  9999
2 57192  97.6260 131.8608 0019430  72.4016 287.9331 15.06690279 39886
SITRO-AIS 8 (ANOKHIN)   
1 57193U 23091AD  24078.86168697  .00006472  00000+0  43590-3 0  9994
2 57193  97.6256 131.9434 0019313  73.3404 286.9942 15.06882376 39890
SITRO-AIS 7 (FARTUSHNIY)
1 57194U 23091AE  24078.81467906  .00006599  00000+0  44717-3 0  9997
2 57194  97.6258 131.8525 0019254  72.7926 287.5407 15.06651722 39880
SITRO-AIS 10 (BURDAEV)  
1 57199U 23091AK  24078.86873981  .00007142  00000+0  46053-3 0  9991
2 57199  97.6272 132.5948 0014069  64.1646 296.1031 15.08528071 39938
SITRO-AIS 9 (SHCHUKIN)  
1 57201U 23091AM  24078.86666624  .00007282  00000+0  46948-3 0  9997
2 57201  97.6266 132.5802 0014039  63.9937 296.2735 15.08527873 39932
SITRO-AIS 12 (SMIRENNIY)
1 57204U 23091AQ  24078.83985309  .00007623  00000+0  48921-3 0  9993
2 57204  97.6266 132.6496 0013560  58.2559 301.9989 15.08688967 39937
SITRO-AIS 11 (SHEFFER)  
1 57208U 23091AU  24078.82996742  .00008063  00000+0  51629-3 0  9997
2 57208  97.6269 132.6540 0013422  58.6314 301.6225 15.08750969 39936
SITRO-AIS B             
1 59052U 24039B   24078.89826674  .00016795  00000+0  71198-3 0  9996
2 59052  97.3840  42.0107 0020416 167.3167 192.8588 15.23009966  2837
SITRO-AIS C             
1 59053U 24039C   24078.89824950  .00018223  00000+0  77205-3 0  9995
2 59053  97.3838  42.0098 0020414 168.0445 192.1281 15.23011631  2823
SITRO-AIS 31            
1 59054U 24039D   24078.83165103  .00016000  00000+0  67685-3 0  9990
2 59054  97.3838  41.9462 0020269 168.2345 191.9370 15.23094641  2835
SITRO-AIS 33            
1 59055U 24039E   24078.89619515  .00017553  00000+0  74003-3 0  9994
2 59055  97.3839  42.0133 0020007 168.3647 191.8057 15.23194546  2836
SITRO-AIS F             
1 59056U 24039F   24078.89534191  .00017919  00000+0  75395-3 0  9992
2 59056  97.3840  42.0140 0019814 168.5395 191.6298 15.23260324  2836
SITRO-AIS G             
1 59057U 24039G   24078.89605143  .00018301  00000+0  77133-3 0  9997
2 59057  97.3840  42.0132 0019724 168.6807 191.4878 15.23200542  2835
SITRO-AIS 35            
1 59058U 24039H   24078.89581801  .00017950  00000+0  75603-3 0  9991
2 59058  97.3840  42.0144 0019887 168.5398 191.6296 15.23224491  2838
SITRO-AIS 36            
1 59059U 24039J   24078.82882889  .00016017  00000+0  67340-3 0  9997
2 59059  97.3840  41.9508 0019495 168.6990 191.4689 15.23317636  2822
SITRO-AIS 49            
1 59060U 24039K   24078.89422759  .00017564  00000+0  73747-3 0  9998
2 59060  97.3839  42.0158 0019462 168.4116 191.7573 15.23341683  2832
SITRO-AIS 50            
1 59061U 24039L   24078.89375977  .00018691  00000+0  78315-3 0  9996
2 59061  97.3839  42.0167 0019480 168.3851 191.7840 15.23399168  2836
SITRO-AIS 51            
1 59062U 24039M   24078.82768348  .00016689  00000+0  69937-3 0  9993
2 59062  97.3839  41.9525 0019404 168.5060 191.6624 15.23419092  2820
SITRO-AIS 52            
1 59063U 24039N   24078.82680719  .00018099  00000+0  75629-3 0  9991
2 59063  97.3839  41.9537 0019235 168.2209 191.9482 15.23502673  2821
SITRO-AIS 25            
1 59066U 24039R   24078.87508459  .00006297  00000+0  62287-3 0  9992
2 59066  95.3943  36.2944 0173204 293.6641  64.6482 14.81460777  2734
